C/2018 N1 (NEOWISE),e,159.4482,292.4338,354.5498,1060,0.0000285,0.99876689,0.0000,08/01.9757/2018,2000,g 15.5,4.0
# From MPEC 2018-O01
C/2018 N2 (ASASSN),p,10/04.0935/2019,78.3183,23.8515,3.005445,22.9602,2000,6.0,4.0
# From MPEC 2018-Q22
C/2018 O1 (ATLAS),e,154.0407,87.6203,162.5079,27.79945,0.0067243,0.94395045,359.9087,08/18.0/2018,2000,g 17.0,4.0
# From AJ 98, 1083
1P/Halley,e,162.3384,57.9679,110.8900,17.86119,0.0130568,0.96679058,155.5008,08/18.0/2018,2000,g  5.5,3.2
# From MPC105240
2P/Encke,e,11.7721,334.5624,186.5667,2.214663,0.2990492,0.84816762,157.2898,08/18.0/2018,2000,g 11.5,6.0
# From MPC 92275
4P/Faye,e,8.4307,196.3198,205.0172,3.777076,0.1342674,0.59022395,210.4011,08/18.0/2018,2000,g  8.0,6.0
# From MPC 95735
6P/d'Arrest,e,19.4971,138.9197,178.0580,3.500033,0.1505206,0.61189585,190.3240,08/18.0/2018,2000,g  7.5,16.0
# From MPC 92984
7P/Pons-Winnecke,e,22.3602,93.3798,172.5168,3.417377,0.1560144,0.63836367,201.9664,08/18.0/2018,2000,g 10.0,6.0
# From MPC 75715
8P/Tuttle,e,54.9196,270.2178,207.5312,5.694039,0.0725393,0.81990085,279.7575,08/18.0/2018,2000,g  8.0,8.0
# From MPC 84319
9P/Tempel,e,10.4753,68.7385,179.2670,3.147033,0.1765436,0.50973139,131.5641,08/18.0/2018,2000,g  5.5,10.0
# From MPC 92984
10P/Tempel,e,12.0362,117.7975,195.4886,3.062098,0.1839397,0.53790511,185.3219,08/18.0/2018,2000,g  5.0,10.0
# From MPC105240
11P/Tempel-Swift-LINEAR,e,14.5494,239.2378,165.6916,3.348455,0.1608561,0.57116102,227.0990,08/18.0/2018,2000,g 17.0,4.0
# From QJ 27, 604
12P/Pons-Brooks,e,74.0615,255.6972,199.1339,17.00013,0.0140613,0.95425220,330.8345,08/18.0/2018,2000,g  5.0,6.0
# From QJ 27, 604
13P/Olbers,e,44.6277,85.8554,64.6654,16.64019,0.0145200,0.93009050,328.8758,08/18.0/2018,2000,g  5.0,6.0
# From MPC 10028
14P/Wolf,e,27.9015,202.1150,159.0078,4.260131,0.1120907,0.35615236,29.0377,08/18.0/2018,2000,g  5.5,12.0
# From MPC 91617
15P/Finlay,e,6.7972,13.7196,347.8733,3.502603,0.1503549,0.71676475,200.4516,08/18.0/2018,2000,g 12.0,4.0
# From MPC 92276
16P/Brooks,e,2.9995,140.1630,244.6878,3.634631,0.1422373,0.49568038,222.1082,08/18.0/2018,2000,g  7.5,10.0
# From MPC 83523
17P/Holmes,e,19.0305,326.7232,24.6875,3.630606,0.1424739,0.42852419,229.2859,08/18.0/2018,2000,g 10.0,6.0
# From MPC 92984
19P/Borrelly,e,30.7311,75.0595,353.4120,3.588778,0.1449720,0.62903034,170.5405,08/18.0/2018,2000,g  4.5,10.0
# From MPC110084
21P/Giacobini-Zinner,e,31.9977,195.3933,172.8628,3.498098,0.1506455,0.71047638,356.4932,08/18.0/2018,2000,g  9.0,6.0
# From MPC 94283
22P/Kopff,e,4.7392,120.8416,162.8991,3.444742,0.1541590,0.54845142,158.3778,08/18.0/2018,2000,g  3.0,10.4
# From MPC 14747
23P/Brorsen-Metcalf,e,19.2555,311.9335,129.3070,16.96279,0.0141078,0.97090151,0.0000,09/01.9746/1989,2000,g  7.8,3.2
# From MPC110085
24P/Schaumasse,e,11.7387,79.6231,58.0496,4.085656,0.1193470,0.70487409,32.7053,08/18.0/2018,2000,g  6.5,14.0
# From MPC 94674
26P/Grigg-Skjellerup,e,22.4497,211.5339,2.2016,3.014259,0.1883360,0.64094207,351.5585,08/18.0/2018,2000,g 12.0,16.0
# From MPC 78188
27P/Crommelin,e,29.1059,250.5718,196.0468,9.201922,0.0353091,0.91800961,91.0046,08/18.0/2018,2000,g 12.0,8.0
# From MPC 75715
28P/Neujmin,e,14.3108,346.3447,347.4633,6.957989,0.0537005,0.77314625,309.6613,08/18.0/2018,2000,g  8.5,6.0
# From MPC102100
29P/Schwassmann-Wachmann,e,9.3698,312.4026,47.8141,6.023640,0.0666677,0.04263443,346.5044,08/18.0/2018,2000,g  4.0,4.0
# From MPC110085
30P/Reinmuth,e,8.1317,119.6270,13.4043,3.774126,0.1344248,0.50287613,48.8768,08/18.0/2018,2000,g  9.5,6.0
# From MPC108597
31P/Schwassmann-Wachmann,e,4.5465,114.1126,18.3614,4.245918,0.1126540,0.19328088,323.7077,08/18.0/2018,2000,g  5.0,8.0
# From MPC 92276
32P/Comas Sola,e,9.9614,57.7889,53.2672,4.502268,0.1031709,0.55562630,144.5849,08/18.0/2018,2000,g  6.5,8.0
# From MPC 84320
33P/Daniel,e,22.4457,66.3735,19.8237,4.045886,0.1211110,0.46237129,87.7548,08/18.0/2018,2000,g 10.0,12.0
# From QJ 15, 452
35P/Herschel-Rigollet,e,63.8723,355.8455,29.3105,28.57243,0.0064533,0.97309781,0.0000,01/16.1581/2092,2000,g  8.5,4.0
# From MPC105240
36P/Whipple,e,9.9508,181.8947,200.5089,4.133267,0.1172908,0.26814451,283.5546,08/18.0/2018,2000,g  8.5,6.0
# From MPC110085
37P/Forbes,e,8.9564,314.5903,329.9839,3.456532,0.1533710,0.53412528,16.2374,08/18.0/2018,2000,g 10.5,4.8
# From QJ 27, 605
38P/Stephan-Oterma,e,18.3530,77.9997,359.5836,11.29215,0.0259740,0.85932073,357.7929,08/18.0/2018,2000,g  3.5,12.0
# From MPC 75716
39P/Oterma,e,1.5588,299.2596,94.4867,7.418237,0.0487813,0.22273362,275.8612,08/18.0/2018,2000,g  5.0,6.0
# From MPC 10028
40P/Vaisala,e,11.4796,133.8215,47.4233,4.947393,0.0895652,0.63108002,122.8354,08/18.0/2018,2000,g  5.5,12.0
# From MPC105240
41P/Tuttle-Giacobini-Kresak,e,9.2258,141.0373,62.2099,3.084555,0.1819346,0.66099774,89.5623,08/18.0/2018,2000,g 10.0,16.0
# From MPC 94283
42P/Neujmin,e,3.9855,150.2440,147.0814,4.873505,0.0916098,0.58491158,112.4163,08/18.0/2018,2000,g 13.0,6.0
# From MPC102956
43P/Wolf-Harrington,e,16.3513,249.3656,192.1442,3.355101,0.1603783,0.59984030,116.0595,08/18.0/2018,2000,g  8.0,6.0
# From MPC 89313
44P/Reinmuth,e,5.8977,286.4708,58.1514,3.690137,0.1390402,0.42637350,172.8853,08/18.0/2018,2000,g  8.3,6.0
# From MPC103849
45P/Honda-Mrkos-Pajdusakova,e,4.3067,87.9332,327.6805,3.042894,0.1856838,0.82159402,110.4486,08/18.0/2018,2000,g 13.5,8.0
# From MPEC 2018-N81
46P/Wirtanen,e,11.7454,82.1658,356.3306,3.090612,0.1814000,0.65852694,338.7879,08/18.0/2018,2000,g 14.0,6.0
# From NK 2718
47P/Ashbrook-Jackson,e,13.0286,356.9643,357.6369,4.126951,0.1175601,0.31725319,51.0161,08/18.0/2018,2000,g  1.0,11.2
# From MPC 94675
48P/Johnson,e,12.2070,110.1334,216.5604,3.498130,0.1506434,0.42697111,0.8743,08/18.0/2018,2000,g 10.0,6.0
# From MPC 94675
49P/Arend-Rigaux,e,19.0433,118.8241,332.8870,3.568813,0.1461902,0.59941747,4.8980,08/18.0/2018,2000,g 11.3,4.4
# From MPC 95735
50P/Arend,e,19.1051,355.1677,49.4066,4.089838,0.1191640,0.52893102,109.9335,08/18.0/2018,2000,g  9.5,6.0
# From NK 3014
51P-A/Harrington,e,5.4246,83.6946,269.2111,3.711150,0.1378610,0.54225094,151.8860,08/18.0/2018,2000,g 10.0,8.0
# From NK 3013
51P-D/Harrington,e,5.4254,83.6794,269.2499,3.710143,0.1379171,0.54218522,152.0978,08/18.0/2018,2000,g 16.0,8.0
# From MPC 88330
52P/Harrington-Abell,e,10.2309,336.8369,139.6441,3.860728,0.1299272,0.53946608,211.2504,08/18.0/2018,2000,g 13.5,6.0
# From MPC 10028
53P/Van Biesbroeck,e,6.6069,148.8972,134.2550,5.419784,0.0781144,0.55223524,65.5958,08/18.0/2018,2000,g  7.7,4.8
# From NK 2713
54P/de Vico-Swift-NEAT,e,6.0570,358.8398,1.8132,3.795906,0.1332695,0.42466999,65.2573,08/18.0/2018,2000,g 10.0,6.0
# From MPC 31070
55P/Tempel-Tuttle,e,162.3329,235.4065,172.5974,10.33932,0.0296460,0.90705493,221.8384,08/18.0/2018,2000,g 10.0,10.0
# From MPC101100
56P/Slaughter-Burnham,e,8.1498,345.9736,44.1486,5.077782,0.0861376,0.50619540,65.5406,08/18.0/2018,2000,g  8.5,6.0
# From MPC 98565
57P/du Toit-Neujmin-Delporte,e,2.8487,188.8049,115.1334,3.449425,0.1538453,0.50006427,182.0311,08/18.0/2018,2000,g 12.5,6.0
# From MPC 65938
58P/Jackson-Neujmin,e,13.1260,159.3651,200.3841,4.075736,0.1197830,0.66375074,282.6487,08/18.0/2018,2000,g 15.5,6.0
# From MPC106348
59P/Kearns-Kwee,e,9.3393,312.8284,127.7000,4.494984,0.1034217,0.47524840,356.9233,08/18.0/2018,2000,g  7.0,6.0
# From MPC 94675
60P/Tsuchinshan,e,3.6065,267.5833,216.5534,3.510544,0.1498451,0.53778396,342.7332,08/18.0/2018,2000,g 11.5,6.0
# From MPC 95213
61P/Shajn-Schaldach,e,6.0016,163.0122,221.9845,3.682752,0.1394586,0.42434493,146.7032,08/18.0/2018,2000,g  6.0,10.0
# From MPC109147
62P/Tsuchinshan,e,9.7102,90.2265,30.3949,3.440633,0.1544353,0.59778081,42.4396,08/18.0/2018,2000,g  8.0,10.0
# From MPC 84320
63P/Wild,e,19.7681,357.9954,169.1910,5.601071,0.0743528,0.65012180,145.4150,08/18.0/2018,2000,g 10.5,6.0
# From MPEC 2018-P89
64P/Swift-Gehrels,e,8.9488,299.9999,97.1467,4.457315,0.1047355,0.68743550,351.8419,08/18.0/2018,2000,g  9.5,12.0
# From MPC104795
65P/Gunn,e,9.1851,62.0185,213.5885,3.880486,0.1289362,0.25001306,39.3233,08/18.0/2018,2000,g  5.0,6.0
# From MPC109147
66P/du Toit,e,18.6749,21.8959,257.2161,6.053397,0.0661767,0.78687591,6.0112,08/18.0/2018,2000,g 12.0,3.6
# From MPC 89011
67P/Churyumov-Gerasimenko,e,6.8091,49.5980,12.0201,3.398892,0.1572889,0.66884507,171.0129,08/18.0/2018,2000,g 11.0,4.0
# From MPC 75716
68P/Klemola,e,11.1249,175.1933,153.0686,4.948331,0.0895398,0.63815002,319.8832,08/18.0/2018,2000,g 10.0,4.0
# From MPC102100
69P/Taylor,e,22.0314,104.8326,343.5849,3.891553,0.1283866,0.41327038,332.7411,08/18.0/2018,2000,g  9.5,12.0
# From MPC 92276
70P/Kojima,e,6.5987,119.2692,1.9192,3.674079,0.1399527,0.45317209,195.7121,08/18.0/2018,2000,g 11.0,6.0
# From MPC107051
71P/Clark,e,9.4451,59.4445,208.9499,3.137045,0.1773875,0.49430697,73.3904,08/18.0/2018,2000,g  9.8,6.0
# From MPC 89011
72P/Denning-Fujikawa,e,10.9164,26.7000,346.6774,4.312528,0.1100541,0.81751771,165.7404,08/18.0/2018,2000,g 17.5,10.0
# From MPC106348
73P/Schwassmann-Wachmann,e,11.2383,69.6577,199.4029,3.092722,0.1812144,0.68570007,94.0643,08/18.0/2018,2000,g 11.5,6.0
# From MPC106348
73P-BT/Schwassmann-Wachmann,e,11.2405,69.6602,199.3844,3.094280,0.1810776,0.68590371,93.9941,08/18.0/2018,2000,g 11.5,6.0
# From MPC102956
74P/Smirnova-Chernykh,e,6.6541,77.0509,87.2490,4.159524,0.1161819,0.14973770,23.5374,08/18.0/2018,2000,g  5.0,6.0
# From MPC102100
76P/West-Kohoutek-Ikemura,e,30.4571,84.1263,0.0460,3.473569,0.1522440,0.53803103,293.8944,08/18.0/2018,2000,g  8.0,12.0
# From MPC 10028
77P/Longmore,e,24.3429,14.8077,196.8237,3.617986,0.1432200,0.35325359,118.3296,08/18.0/2018,2000,g  7.0,8.0
# From MPC102101
78P/Gehrels,e,6.2489,210.5473,192.6932,3.739341,0.1363049,0.46145212,328.9600,08/18.0/2018,2000,g  5.5,8.0
# From MPC 94675
79P/du Toit-Hartley,e,3.1477,280.5265,281.8500,2.943753,0.1951426,0.61921658,354.8590,08/18.0/2018,2000,g 16.0,4.0
# From MPC 89313
80P/Peters-Hartley,e,29.9463,259.8237,339.2166,4.024036,0.1220988,0.59948154,168.0258,08/18.0/2018,2000,g  9.0,8.0
# From MPC105241
